{
  "norad_id": 53639,
  "name": "STARLINK-4422",
  "history": [
    {
      "epoch": "2026-03-28T20:50:48.958080Z",
      "apogee_km": 540.6502551498288,
      "perigee_km": 538.8355568928819,
      "latitude_deg": -6.353782191660693e-05,
      "longitude_deg": -1.1769282663071243,
      "height_km": 540.7224062029342,
      "semi_major_axis_km": 6917.879906021355,
      "eccentricity": 0.00013116,
      "inclination_deg": 53.2159,
      "raan_deg": 137.81,
      "arg_perigee_deg": 95.3037,
      "mean_anomaly_deg": 264.8104,
      "mean_motion_rev_day": 15.08840158
    }
  ]
}